NORAD_CAT_ID,OBJECT_NAME,OBJECT_TYPE,EPOCH,MEAN_MOTION,ECCENTRICITY,INCLINATION,RA_OF_ASC_NODE,ARG_OF_PERICENTER,MEAN_ANOMALY,BSTAR,MEAN_MOTION_DOT,MEAN_MOTION_DDOT,TLE_LINE0,TLE_LINE1,TLE_LINE2,SEMIMAJOR_AXIS,PERIOD,APOGEE,PERIGEE,DECAYED
51739.0,STARLINK-3516,PAYLOAD,2023-04-08 07:34:42,15.08850748,0.0001348,53.2161,66.2529,99.8451,260.2693,0.00028936,4.322e-05,0.0,0 STARLINK-3516,1 51739U 22016AB  23098.31577060  .00004322  00000-0  28936-3 0  9999,2 51739  53.2161  66.2529 0001348  99.8451 260.2693 15.08850748 63695,6917.848,95.437,540.645,538.78,0.0
51739.0,STARLINK-3516,PAYLOAD,2023-04-09 04:14:43,15.08846252,0.0001087,53.2157,62.3888,93.4445,266.6672,0.00022208,3.249e-05,0.0,0 STARLINK-3516,1 51739U 22016AB  23099.17689315  .00003249  00000-0  22208-3 0  9994,2 51739  53.2157  62.3888 0001087  93.4445 266.6672 15.08846252 63825,6917.861,95.437,540.478,538.974,0.0
51739.0,STARLINK-3516,PAYLOAD,2023-04-09 07:25:29,15.08848344,0.00011,53.2161,61.7931,96.0735,264.0383,0.00026265,3.896e-05,0.0,0 STARLINK-3516,1 51739U 22016AB  23099.30937202  .00003896  00000-0  26265-3 0  9995,2 51739  53.2161  61.7931 0001100  96.0735 264.0383 15.08848344 62722,6917.855,95.437,540.481,538.959,0.0
51739.0,STARLINK-3516,PAYLOAD,2023-04-09 23:19:21,15.08838629,0.0001134,53.2157,58.8202,95.21,264.9022,4.8508e-05,4.84e-06,0.0,0 STARLINK-3516,1 51739U 22016AB  23099.97177568  .00000484  00000-0  48508-4 0  9994,2 51739  53.2157  58.8202 0001134  95.2100 264.9022 15.08838629 63948,6917.885,95.438,540.534,538.965,0.0
51739.0,STARLINK-3516,PAYLOAD,2023-04-10 04:05:30,15.08845894,0.0001087,53.2165,57.9287,92.6786,267.433,0.000191,2.754e-05,0.0,0 STARLINK-3516,1 51739U 22016AB  23100.17049267  .00002754  00000-0  19100-3 0  9990,2 51739  53.2165  57.9287 0001087  92.6786 267.4330 15.08845894 62859,6917.862,95.437,540.479,538.975,0.0
51739.0,STARLINK-3516,PAYLOAD,2023-04-10 21:34:45,15.08847155,0.0001095,53.2172,54.6597,98.3429,261.7687,0.00022342,3.27e-05,0.0,0 STARLINK-3516,1 51739U 22016AB  23100.89913276  .00003270  00000-0  22342-3 0  9995,2 51739  53.2172  54.6597 0001095  98.3429 261.7687 15.08847155 62967,6917.859,95.437,540.481,538.966,0.0
51739.0,STARLINK-3516,PAYLOAD,2023-04-11 05:31:40,15.0885742,0.0001118,53.2175,53.1735,96.1878,263.9241,0.0004477,6.848e-05,0.0,0 STARLINK-3516,1 51739U 22016AB  23101.23032838  .00006848  00000-0  44770-3 0  9993,2 51739  53.2175  53.1735 0001118  96.1878 263.9241 15.08857420 64135,6917.827,95.436,540.466,538.919,0.0
51739.0,STARLINK-3516,PAYLOAD,2023-04-12 05:22:28,15.08831815,0.0001114,53.2168,48.7114,89.6781,270.4339,-7.9911e-05,-1.559e-05,0.0,0 STARLINK-3516,1 51739U 22016AB  23102.22394015 -.00001559  00000-0 -79911-4 0  9993,2 51739  53.2168  48.7114 0001114  89.6781 270.4339 15.08831815 64281,6917.905,95.438,540.541,539.0,0.0
51739.0,STARLINK-3516,PAYLOAD,2023-04-12 13:19:24,15.08832999,0.000112,53.2169,47.225,88.0471,272.0649,-3.9916e-06,-3.51e-06,0.0,0 STARLINK-3516,1 51739U 22016AB  23102.55514185 -.00000351  00000-0 -39916-5 0  9992,2 51739  53.2169  47.2250 0001120  88.0471 272.0649 15.08832999 63211,6917.902,95.438,540.542,538.992,0.0
51739.0,STARLINK-3516,PAYLOAD,2023-04-13 06:48:38,15.08848911,0.0001305,53.217,43.9524,86.3538,273.7604,0.00050137,7.702e-05,0.0,0 STARLINK-3516,1 51739U 22016AB  23103.28378058  .00007702  00000-0  50137-3 0  9991,2 51739  53.2170  43.9524 0001305  86.3538 273.7604 15.08848911 63322,6917.853,95.437,540.621,538.815,0.0
51739.0,STARLINK-3516,PAYLOAD,2023-04-13 13:10:11,15.08836705,0.0001503,53.2176,42.7621,85.2868,274.8296,0.000318,4.776e-05,0.0,0 STARLINK-3516,1 51739U 22016AB  23103.54874508  .00004776  00000-0  31800-3 0  9995,2 51739  53.2176  42.7621 0001503  85.2868 274.8296 15.08836705 64482,6917.89,95.438,540.795,538.716,0.0
51739.0,STARLINK-3516,PAYLOAD,2023-04-14 05:04:02,15.08860195,0.0001275,53.2162,39.7898,78.1099,282.0036,0.00089021,0.00013916,0.0,0 STARLINK-3516,1 51739U 22016AB  23104.21113968  .00013916  00000-0  89021-3 0  9990,2 51739  53.2162  39.7898 0001275  78.1099 282.0036 15.08860195 64586,6917.819,95.436,540.566,538.802,0.0
51739.0,STARLINK-3516,PAYLOAD,2023-04-15 00:08:39,15.08859827,0.0001164,53.2161,36.221,99.1576,260.9548,0.00079818,0.00012445,0.0,0 STARLINK-3516,1 51739U 22016AB  23105.00601792  .00012445  00000-0  79818-3 0  9994,2 51739  53.2161  36.2210 0001164  99.1576 260.9548 15.08859827 64702,6917.82,95.436,540.49,538.88,0.0
51739.0,STARLINK-3516,PAYLOAD,2023-04-15 01:44:03,15.0886536,9.65e-05,53.2161,35.9241,87.4532,272.6571,0.00098798,0.00015482,0.0,0 STARLINK-3516,1 51739U 22016AB  23105.07225704  .00015482  00000-0  98798-3 0  9998,2 51739  53.2161  35.9241 0000965  87.4532 272.6571 15.08865360 63593,6917.803,95.436,540.335,539.0,0.0
51739.0,STARLINK-3516,PAYLOAD,2023-04-15 22:24:04,15.08857283,0.0001207,53.2166,32.0581,121.9906,238.1204,0.0017333,0.00027418,0.0,0 STARLINK-3516,1 51739U 22016AB  23105.93338083  .00027418  00000-0  17333-2 0  9995,2 51739  53.2166  32.0581 0001207 121.9906 238.1204 15.08857283 64846,6917.828,95.436,540.528,538.858,0.0
51739.0,STARLINK-3516,PAYLOAD,2023-04-16 01:34:50,15.0884934,0.0001055,53.2168,31.4639,116.0191,244.091,0.0015944,0.00025184,0.0,0 STARLINK-3516,1 51739U 22016AB  23106.06586058  .00025184  00000-0  15944-2 0  9991,2 51739  53.2168  31.4639 0001055 116.0191 244.0910 15.08849340 64864,6917.852,95.437,540.447,538.987,0.0
51739.0,STARLINK-3516,PAYLOAD,2023-04-16 19:04:05,15.08836713,0.0001273,53.2174,28.1927,109.3131,250.7999,0.0014854,0.00023429,0.0,0 STARLINK-3516,1 51739U 22016AB  23106.79450680  .00023429  00000-0  14854-2 0  9991,2 51739  53.2174  28.1927 0001273 109.3131 250.7999 15.08836713 63854,6917.89,95.438,540.636,538.875,0.0
51739.0,STARLINK-3516,PAYLOAD,2023-04-17 04:36:24,15.08843418,0.0001128,53.2172,26.4081,104.1204,255.9914,0.00059829,9.248e-05,0.0,0 STARLINK-3516,1 51739U 22016AB  23107.19194495  .00009248  00000-0  59829-3 0  9990,2 51739  53.2172  26.4081 0001128 104.1204 255.9914 15.08843418 65033,6917.87,95.437,540.515,538.955,0.0
51739.0,STARLINK-3516,PAYLOAD,2023-04-18 04:27:11,15.08851025,0.0001072,53.2172,21.9478,95.7467,264.3647,0.00050078,7.693e-05,0.0,0 STARLINK-3516,1 51739U 22016AB  23108.18554485  .00007693  00000-0  50078-3 0  9998,2 51739  53.2172  21.9478 0001072  95.7467 264.3647 15.08851025 64069,6917.847,95.437,540.453,538.97,0.0
51739.0,STARLINK-3516,PAYLOAD,2023-04-19 04:17:58,15.08853242,9.88e-05,53.2173,17.4875,83.376,276.7345,0.00076668,0.00011939,0.0,0 STARLINK-3516,1 51739U 22016AB  23109.17914792  .00011939  00000-0  76668-3 0  9990,2 51739  53.2173  17.4875 0000988  83.3760 276.7345 15.08853242 65331,6917.84,95.437,540.388,539.021,0.0
51739.0,STARLINK-3516,PAYLOAD,2023-04-20 02:33:21,15.08861813,0.0001604,53.2177,13.3256,74.1802,285.9367,0.0010097,0.00015827,0.0,0 STARLINK-3516,1 51739U 22016AB  23110.10650403  .00015827  00000-0  10097-2 0  9994,2 51739  53.2177  13.3256 0001604  74.1802 285.9367 15.08861813 64354,6917.814,95.436,540.788,538.569,0.0
51739.0,STARLINK-3516,PAYLOAD,2023-04-21 03:59:32,15.08832703,0.0001523,53.217,8.5674,72.7357,287.3802,-5.0292e-05,-1.088e-05,0.0,0 STARLINK-3516,1 51739U 22016AB  23111.16635412 -.00001088  00000-0 -50292-4 0  9993,2 51739  53.2170   8.5674 0001523  72.7357 287.3802 15.08832703 65634,6917.903,95.438,540.821,538.714,0.0
51739.0,STARLINK-3516,PAYLOAD,2023-04-22 02:14:56,15.08858919,0.0001162,53.2171,4.4022,93.8957,266.2168,0.00064025,9.922e-05,0.0,0 STARLINK-3516,1 51739U 22016AB  23112.09370595  .00009922  00000-0  64025-3 0  9995,2 51739  53.2171   4.4022 0001162  93.8957 266.2168 15.08858919 65779,6917.823,95.436,540.491,538.884,0.0
51739.0,STARLINK-3516,PAYLOAD,2023-04-23 02:05:43,15.08850407,9.96e-05,53.2164,359.9426,96.0755,264.0351,0.00028285,4.218e-05,0.0,0 STARLINK-3516,1 51739U 22016AB  23113.08730587  .00004218  00000-0  28285-3 0  9997,2 51739  53.2164 359.9426 0000996  96.0755 264.0351 15.08850407 65923,6917.849,95.437,540.403,539.025,0.0
51739.0,STARLINK-3516,PAYLOAD,2023-04-23 17:59:34,15.08837097,0.0001113,53.217,356.9688,88.3312,271.7808,0.00067214,0.00010425,0.0,0 STARLINK-3516,1 51739U 22016AB  23113.74970912  .00010425  00000-0  67214-3 0  9990,2 51739  53.2170 356.9688 0001113  88.3312 271.7808 15.08837097 66026,6917.889,95.438,540.524,538.984,0.0
51739.0,STARLINK-3516,PAYLOAD,2023-04-23 19:34:57,15.08845706,0.0001505,53.2171,356.6758,105.6698,254.446,0.00030616,4.589e-05,0.0,0 STARLINK-3516,1 51739U 22016AB  23113.81594876  .00004589  00000-0  30616-3 0  9999,2 51739  53.2171 356.6758 0001505 105.6698 254.4460 15.08845706 64911,6917.863,95.437,540.769,538.687,0.0
51739.0,STARLINK-3516,PAYLOAD,2023-04-24 01:56:30,15.08856028,0.0001343,53.2168,355.4816,91.429,268.6856,0.00082148,0.00012816,0.0,0 STARLINK-3516,1 51739U 22016AB  23114.08090453  .00012816  00000-0  82148-3 0  9990,2 51739  53.2168 355.4816 0001343  91.4290 268.6856 15.08856028 66073,6917.831,95.437,540.625,538.767,0.0
51739.0,STARLINK-3516,PAYLOAD,2023-04-24 17:50:20,15.08886975,0.0001004,53.2174,352.5082,92.0581,268.0526,0.0011195,0.00017597,0.0,0 STARLINK-3516,1 51739U 22016AB  23114.74328897  .00017597  00000-0  11195-2 0  9993,2 51739  53.2174 352.5082 0001004  92.0581 268.0526 15.08886975 66170,6917.737,95.435,540.296,538.907,0.0
51739.0,STARLINK-3516,PAYLOAD,2023-04-24 22:36:29,15.08887449,0.0001221,53.2169,351.6178,93.3254,266.7877,0.0011323,0.00017802,0.0,0 STARLINK-3516,1 51739U 22016AB  23114.94200491  .00017802  00000-0  11323-2 0  9996,2 51739  53.2169 351.6178 0001221  93.3254 266.7877 15.08887449 65082,6917.735,95.435,540.445,538.756,0.0
51739.0,STARLINK-3516,PAYLOAD,2023-04-26 14:21:09,15.08803248,0.0001344,53.2226,344.1856,334.5995,25.4931,0.00031435,4.714e-05,0.0,0 STARLINK-3516,1 51739U 22016AB  23116.59803072  .00004714  00000-0  31435-3 0  9998,2 51739  53.2226 344.1856 0001344 334.5995  25.4931 15.08803248 65338,6917.993,95.44,540.788,538.928,0.0
